NORAD_CAT_ID,OBJECT_NAME,OBJECT_TYPE,EPOCH,MEAN_MOTION,ECCENTRICITY,INCLINATION,RA_OF_ASC_NODE,ARG_OF_PERICENTER,MEAN_ANOMALY,BSTAR,MEAN_MOTION_DOT,MEAN_MOTION_DDOT,TLE_LINE0,TLE_LINE1,TLE_LINE2,SEMIMAJOR_AXIS,PERIOD,APOGEE,PERIGEE,DECAYED
51871.0,STARLINK-3567,PAYLOAD,2023-04-10 08:02:39,15.0884113,0.0001537,53.2169,107.1908,84.7386,275.3781,5.1549e-05,5.33e-06,0.0,0 STARLINK-3567,1 51871U 22022V   23100.33517550  .00000533  00000-0  51549-4 0  9994,2 51871  53.2169 107.1908 0001537  84.7386 275.3781 15.08841130 62549,6917.877,95.437,540.805,538.679,0.0
51871.0,STARLINK-3567,PAYLOAD,2023-04-10 17:34:57,15.08841095,0.0001547,53.217,105.4065,84.1919,275.925,4.7963e-05,4.75e-06,0.0,0 STARLINK-3567,1 51871U 22022V   23100.73261552  .00000475  00000-0  47963-4 0  9996,2 51871  53.2170 105.4065 0001547  84.1919 275.9250 15.08841095 62539,6917.877,95.437,540.812,538.672,0.0
51871.0,STARLINK-3567,PAYLOAD,2023-04-11 09:28:49,15.08842973,0.0001398,53.2158,102.4325,86.2308,273.8844,7.0133e-05,8.28e-06,0.0,0 STARLINK-3567,1 51871U 22022V   23101.39501265  .00000828  00000-0  70133-4 0  9994,2 51871  53.2158 102.4325 0001398  86.2308 273.8844 15.08842973 62701,6917.871,95.437,540.703,538.769,0.0
51871.0,STARLINK-3567,PAYLOAD,2023-04-11 17:25:45,15.08836216,0.000158,53.2167,100.9463,79.9555,280.1615,2.2793e-05,7.5e-07,0.0,0 STARLINK-3567,1 51871U 22022V   23101.72621951  .00000075  00000-0  22793-4 0  9999,2 51871  53.2167 100.9463 0001580  79.9555 280.1615 15.08836216 62680,6917.892,95.438,540.85,538.664,0.0
51871.0,STARLINK-3567,PAYLOAD,2023-04-12 10:54:59,15.08841086,0.0001436,53.2166,97.6749,82.6775,277.438,5.1323e-05,5.29e-06,0.0,0 STARLINK-3567,1 51871U 22022V   23102.45485608  .00000529  00000-0  51323-4 0  9992,2 51871  53.2166  97.6749 0001436  82.6775 277.4380 15.08841086 62862,6917.877,95.437,540.735,538.749,0.0
51871.0,STARLINK-3567,PAYLOAD,2023-04-13 05:59:36,15.08843303,0.0001244,53.2159,94.1062,80.9928,279.1205,8.7766e-05,1.109e-05,0.0,0 STARLINK-3567,1 51871U 22022V   23103.24973305  .00001109  00000-0  87766-4 0  9991,2 51871  53.2159  94.1062 0001244  80.9928 279.1205 15.08843303 62984,6917.87,95.437,540.596,538.875,0.0
51871.0,STARLINK-3567,PAYLOAD,2023-04-13 10:45:45,15.08849723,0.0001279,53.217,93.2135,84.6374,275.4764,0.00010271,1.348e-05,0.0,0 STARLINK-3567,1 51871U 22022V   23103.44844832  .00001348  00000-0  10271-3 0  9996,2 51871  53.2170  93.2135 0001279  84.6374 275.4764 15.08849723 62949,6917.851,95.437,540.6,538.831,0.0
51871.0,STARLINK-3567,PAYLOAD,2023-04-14 10:36:33,15.08844381,0.0001305,53.2161,88.754,89.4355,270.6787,0.00010505,1.385e-05,0.0,0 STARLINK-3567,1 51871U 22022V   23104.44205677  .00001385  00000-0  10505-3 0  9996,2 51871  53.2161  88.7540 0001305  89.4355 270.6787 15.08844381 63162,6917.867,95.437,540.635,538.829,0.0
51871.0,STARLINK-3567,PAYLOAD,2023-04-15 10:27:20,15.08852428,0.0001338,53.216,84.2918,100.1949,259.9194,0.00017341,2.474e-05,0.0,0 STARLINK-3567,1 51871U 22022V   23105.43565251  .00002474  00000-0  17341-3 0  9998,2 51871  53.2160  84.2918 0001338 100.1949 259.9194 15.08852428 63249,6917.842,95.437,540.633,538.782,0.0
51871.0,STARLINK-3567,PAYLOAD,2023-04-15 15:13:30,15.0883516,0.0001037,53.2157,83.4024,98.8343,261.2766,-9.5415e-05,-1.806e-05,0.0,0 STARLINK-3567,1 51871U 22022V   23105.63438009 -.00001806  00000-0 -95415-4 0  9999,2 51871  53.2157  83.4024 0001037  98.8343 261.2766 15.08835160 63347,6917.895,95.438,540.478,539.043,0.0
51871.0,STARLINK-3567,PAYLOAD,2023-04-16 07:07:21,15.08839659,0.0001207,53.2161,80.4277,94.5097,265.6034,7.625e-05,9.26e-06,0.0,0 STARLINK-3567,1 51871U 22022V   23106.29678109  .00000926  00000-0  76250-4 0  9995,2 51871  53.2161  80.4277 0001207  94.5097 265.6034 15.08839659 63441,6917.881,95.438,540.581,538.911,0.0
51871.0,STARLINK-3567,PAYLOAD,2023-04-17 05:22:46,15.08840064,0.0001195,53.2162,76.2647,93.4899,266.623,9.9311e-05,1.293e-05,0.0,0 STARLINK-3567,1 51871U 22022V   23107.22414434  .00001293  00000-0  99311-4 0  9999,2 51871  53.2162  76.2647 0001195  93.4899 266.6230 15.08840064 63519,6917.88,95.438,540.572,538.919,0.0
51871.0,STARLINK-3567,PAYLOAD,2023-04-17 08:33:32,15.08843083,0.0001106,53.2154,75.6686,91.1274,268.9845,0.0001577,2.223e-05,0.0,0 STARLINK-3567,1 51871U 22022V   23107.35662307  .00002223  00000-0  15770-3 0  9997,2 51871  53.2154  75.6686 0001106  91.1274 268.9845 15.08843083 63601,6917.871,95.437,540.501,538.971,0.0
51871.0,STARLINK-3567,PAYLOAD,2023-04-18 06:48:58,15.08813727,0.000106,53.216,71.5062,91.5051,268.6062,-0.00017285,-3.036e-05,0.0,0 STARLINK-3567,1 51871U 22022V   23108.28400733 -.00003036  00000-0 -17285-3 0  9991,2 51871  53.2160  71.5062 0001060  91.5051 268.6062 15.08813727 63742,6917.961,95.439,540.559,539.092,0.0
51871.0,STARLINK-3567,PAYLOAD,2023-04-19 03:28:58,15.08845177,0.0001005,53.2175,67.6395,84.4875,275.6231,0.00024854,3.67e-05,0.0,0 STARLINK-3567,1 51871U 22022V   23109.14511738  .00003670  00000-0  24854-3 0  9997,2 51871  53.2175  67.6395 0001005  84.4875 275.6231 15.08845177 63871,6917.865,95.437,540.425,539.034,0.0
51871.0,STARLINK-3567,PAYLOAD,2023-04-20 06:30:30,15.08858992,0.0001081,53.2165,62.5831,105.6528,254.4583,0.00049395,7.586e-05,0.0,0 STARLINK-3567,1 51871U 22022V   23110.27118922  .00007586  00000-0  49395-3 0  9998,2 51871  53.2165  62.5831 0001081 105.6528 254.4583 15.08858992 63979,6917.822,95.436,540.435,538.94,0.0
51871.0,STARLINK-3567,PAYLOAD,2023-04-21 03:10:32,15.08839372,0.0001938,53.2157,58.7185,88.1565,271.9649,-0.00020468,-3.544e-05,0.0,0 STARLINK-3567,1 51871U 22022V   23111.13231489 -.00003544  00000-0 -20468-3 0  9990,2 51871  53.2157  58.7185 0001938  88.1565 271.9649 15.08839372 64100,6917.882,95.438,541.088,538.407,0.0
51871.0,STARLINK-3567,PAYLOAD,2023-04-21 06:21:18,15.08839719,0.0001182,53.2166,58.1252,76.7707,283.3417,-0.00023598,-4.041e-05,0.0,0 STARLINK-3567,1 51871U 22022V   23111.26479604 -.00004041  00000-0 -23598-3 0  9997,2 51871  53.2166  58.1252 0001182  76.7707 283.3417 15.08839719 64195,6917.881,95.438,540.564,538.929,0.0
51871.0,STARLINK-3567,PAYLOAD,2023-04-23 06:02:51,15.08841734,0.000102,53.2171,49.2045,186.8723,173.2255,0.00011641,1.565e-05,0.0,0 STARLINK-3567,1 51871U 22022V   23113.25198779  .00001565  00000-0  11641-3 0  9991,2 51871  53.2171  49.2045 0001020 186.8723 173.2255 15.08841734 64494,6917.875,95.437,540.446,539.034,0.0
51871.0,STARLINK-3567,PAYLOAD,2023-04-24 04:18:15,15.08862816,0.0001668,53.2178,45.0405,94.3476,265.7707,0.00019729,2.855e-05,0.0,0 STARLINK-3567,1 51871U 22022V   23114.17934223  .00002855  00000-0  19729-3 0  9993,2 51871  53.2178  45.0405 0001668  94.3476 265.7707 15.08862816 64562,6917.811,95.436,540.83,538.522,0.0
51871.0,STARLINK-3567,PAYLOAD,2023-04-25 04:09:00,15.08875016,0.0001522,53.2176,40.5809,108.9326,251.1831,0.00065013,0.00010084,0.0,0 STARLINK-3567,1 51871U 22022V   23115.17292533  .00010084  00000-0  65013-3 0  9995,2 51871  53.2176  40.5809 0001522 108.9326 251.1831 15.08875016 64780,6917.773,95.435,540.691,538.585,0.0
51871.0,STARLINK-3567,PAYLOAD,2023-04-26 03:59:51,15.08806667,0.0001356,53.2179,36.1215,93.492,266.6227,-0.00068445,-0.00011154,0.0,0 STARLINK-3567,1 51871U 22022V   23116.16656338 -.00011154  00000-0 -68445-3 0  9995,2 51871  53.2179  36.1215 0001356  93.4920 266.6227 15.08806667 64931,6917.982,95.44,540.785,538.909,0.0
51871.0,STARLINK-3567,PAYLOAD,2023-04-26 18:18:18,15.088217,0.000121,53.2179,33.4433,95.1327,264.9803,-0.00037898,-6.311e-05,0.0,0 STARLINK-3567,1 51871U 22022V   23116.76271875 -.00006311  00000-0 -37898-3 0  9997,2 51871  53.2179  33.4433 0001210  95.1327 264.9803 15.08821700 65029,6917.936,95.439,540.638,538.964,0.0
51871.0,STARLINK-3567,PAYLOAD,2023-04-27 03:50:37,15.08836555,0.0001386,53.2177,31.6607,92.6358,267.4793,-1.0315e-05,-4.52e-06,0.0,0 STARLINK-3567,1 51871U 22022V   23117.16015669 -.00000452  00000-0 -10315-4 0  9995,2 51871  53.2177  31.6607 0001386  92.6358 267.4793 15.08836555 65019,6917.891,95.438,540.715,538.797,0.0
51871.0,STARLINK-3567,PAYLOAD,2023-04-28 00:30:38,15.08842894,0.0001049,53.2179,27.7969,83.0428,277.0683,0.00068496,0.00010631,0.0,0 STARLINK-3567,1 51871U 22022V   23118.02128345  .00010631  00000-0  68496-3 0  9997,2 51871  53.2179  27.7969 0001049  83.0428 277.0683 15.08842894 65216,6917.872,95.437,540.462,539.011,0.0
51871.0,STARLINK-3567,PAYLOAD,2023-04-28 21:10:39,15.08849883,0.0001093,53.2198,23.9319,111.1488,248.9621,5.5811e-05,6.01e-06,0.0,0 STARLINK-3567,1 51871U 22022V   23118.88239689  .00000601  00000-0  55811-4 0  9999,2 51871  53.2198  23.9319 0001093 111.1488 248.9621 15.08849883 65272,6917.85,95.437,540.471,538.959,0.0
51871.0,STARLINK-3567,PAYLOAD,2023-04-29 03:32:11,15.08853486,0.0001013,53.2184,22.7402,89.6491,270.4617,0.0001331,1.832e-05,0.0,0 STARLINK-3567,1 51871U 22022V   23119.14735433  .00001832  00000-0  13310-3 0  9991,2 51871  53.2184  22.7402 0001013  89.6491 270.4617 15.08853486 65383,6917.839,95.437,540.405,539.003,0.0
51871.0,STARLINK-3567,PAYLOAD,2023-04-29 17:50:40,15.08830059,0.0001073,53.2176,20.0665,75.7649,284.3462,-0.00039639,-6.589e-05,0.0,0 STARLINK-3567,1 51871U 22022V   23119.74352111 -.00006589  00000-0 -39639-3 0  9993,2 51871  53.2176  20.0665 0001073  75.7649 284.3462 15.08830059 65409,6917.911,95.438,540.518,539.033,0.0
51871.0,STARLINK-3567,PAYLOAD,2023-04-30 01:47:36,15.08832285,0.0001135,53.2177,18.579,82.5069,277.6052,-0.00016961,-2.986e-05,0.0,0 STARLINK-3567,1 51871U 22022V   23120.07472308 -.00002986  00000-0 -16961-3 0  9992,2 51871  53.2177  18.5790 0001135  82.5069 277.6052 15.08832285 65528,6917.904,95.438,540.554,538.984,0.0
51871.0,STARLINK-3567,PAYLOAD,2023-04-30 20:52:13,15.08848701,8.61e-05,53.2176,15.01,81.9247,278.1843,0.0003561,5.385e-05,0.0,0 STARLINK-3567,1 51871U 22022V   23120.86960228  .00005385  00000-0  35610-3 0  9998,2 51871  53.2176  15.0100 0000861  81.9247 278.1843 15.08848701 65579,6917.854,95.437,540.314,539.123,0.0
